#dP2021  6  3  0  0  0.00000000      96 __u+U ITR00 FIT  IAC
## 2160 345600.00000000   900.00000000 59368 0.0000000000000
+  116   C06C07C08C09C10C11C12C13C14C16C19C20C21C22C23C24C25
+        C26C27C28C29C30C32C33C34C35C36C37C38C39C40C41C42C43
+        C44C45C46E01E02E03E04E05E07E08E09E11E12E13E14E15E18
+        E19E21E24E25E26E27E30E31E33E36G01G02G03G04G05G06G07
+        G08G09G10G12G13G14G15G16G17G18G19G20G21G22G23G24G25
+        G26G27G28G29G30G31G32J01J02J03R01R02R03R04R05R07R08
+        R09R11R12R13R14R15R16R17R18R19R20R21R22R24  0  0  0
++         8 10 11  7  9  8  7 11  8  8  7  7  8  7  8  6  8
++         6  6  7  7  8  6  7  8  7  7  8  8  8  8  6  6  7
++         7  7  7  5  6  5  7  6  7  6  5  6  7  8  6  5  5
++         5  6  6  5  6  5  6  5  6  5  4  6  6  5  6  6  6
++         5  6  6  6  7  6  5  8  6  6  6  5  5  6  6  5  6
++         6  4  7  5  7  6  5  8 10  8  5  7  6  6  6  6  6
++         8  8  7  6  7  8  7  7  7  7  7  6  8  8  0  0  0
%c M  cc GPS ccc cccc cccc cccc cccc ccccc ccccc ccccc ccccc
%c cc cc ccc ccc cccc cccc cccc cccc ccccc ccccc ccccc ccccc
%f  0.0000000  0.000000000  0.00000000000  0.000000000000000
%f  0.0000000  0.000000000  0.00000000000  0.000000000000000
%i    0    0    0    0      0      0      0      0         0
%i    0    0    0    0      0      0      0      0         0
/* INFORMATION & ANALYSIS CENTER (IAC)      ULTRA-RAPID DATA
/* S/V CLOCKS ARE ALIGNED TO GNSS TIME                      
/* G:C1WC2W R:C1PC2P E:C1XC5X C:C2IC6I J:C1CC2S             
/* PCV:IGS14_2148 OL/AL:FES2004  NONE     YN ORB:CoN CLK:CoN
*  2021 06 03  6  0  0.00000000
PC06 -15537.402616  20192.024370 -33185.910668    458.380677
PC07 -22365.889603  34508.963312   8210.380506    113.877907
PC08  -6058.694205  34295.422043  24142.257778   -892.241759
PC09   1502.778705  25722.060981 -32993.629175    476.547526
PC10  -9259.731970  35433.451133  20711.759767    -34.560976
PC11 -21438.907192   3027.454007  17637.504463    377.684589
PC12 -25971.054457 -10019.444851   1847.075844    858.270851
PC13   2001.985327  40111.405481  13342.445790    285.422702
PC14 -23766.491284  13612.613993   5205.279872    906.559348
PC16 -11841.362605  21404.182813 -34230.331894   -875.468226
PC19  19921.726349 -19069.968822   4379.092060    858.425924
PC20  23880.331290  -7526.722413 -12337.787696   -890.982396
PC21 -13661.818178  -9210.781384  22541.219642   -937.095836
PC22   4352.165544 -19922.612601  19072.616024   -952.103609
PC23   1927.505053  27772.485737  -1896.407245   -924.238951
PC24 -16380.929394  -1041.208934 -22570.981375   -876.699124
PC25  -9449.814025  19931.115023 -17107.752562   -907.121774
PC26 -13628.954225 -19090.367987 -15099.982508    898.060421
PC27  22213.875307  15239.809293   7224.905659    542.079748
PC28   5641.221795  18002.814923  20561.998703    -66.867427
PC29  13807.173548 -10737.138057 -21755.171593    400.920992
PC30  25950.635911   2978.713127  -9798.332733    469.295273
PC32  13757.579611   9076.071838 -22500.605445   -927.542342
PC33 -19863.751732  19114.336801  -4252.732661   -936.601148
PC34 -25779.704367  -2506.519491  10405.024149   -659.052025
PC35  -5879.320113 -17820.672617 -20675.465446   -251.074586
PC36  10126.819507 -19381.137429  17365.506350   -726.898065
PC37  12819.903066  20166.489468  14442.502558   -881.201764
PC38  -4437.568482  36770.503493  20278.248850    152.814250
PC39  -8217.210446  22819.371289 -34475.927365     31.505833
PC40 -19024.322409  32577.144125  18701.835528    167.229636
PC41  -4592.946248  20026.353161 -18830.915290   -945.616502
PC42 -23740.400899   6804.595265  13022.353210   -913.499309
PC43 -14420.542551  10422.555517  21492.444861   -759.192143
PC44 -22594.473108 -14639.897852  -7422.777375    220.234423
PC45  -2061.592812 -27763.564605   1800.201608    457.096493
PC46  16185.407522   -107.107226  22741.791657    241.737043
PE01  -7310.915453  28323.544245   4532.613770  -1121.243167
PE02   7218.520059 -28319.954867  -4658.188872    223.482740
PE03   6502.226379 -17586.574185  22913.341170   -437.832542
PE04  15388.216840  12955.697831 -21703.701352   -784.393318
PE05  24893.979297 -11950.597996  10675.878615   -275.943101
PE07 -28579.066395   -605.218989   7672.987701   -545.331384
PE08 -15733.092087 -12613.076475  21672.139405   5992.026778
PE09  28636.293804    275.619034  -7513.542548   5646.418076
PE11  22518.392839  10177.653268 -16292.957422   5899.619071
PE12  17880.307925  23467.161496   2248.395384   5179.019424
PE13 -22575.007711 -10557.365446  15977.302641    417.248796
PE14 -25482.391325  -5918.326114  -4680.161769 999999.999999
PE15 -17992.787174 -23404.084656  -2223.886181    810.867133
PE18  28731.721249  -5338.374453  -9804.165059  -1591.113134
PE19  -9063.676701  17324.292908 -22212.302257    292.797311
PE21 -17012.358545  20291.322924 -13230.070986   -668.516998
PE24  17111.292076    881.400337  24122.530004   -934.366631
PE25  17074.542850 -20129.354964  13400.394815   -535.768851
PE26 -13422.029137   9299.927528  24686.807484   1737.116150
PE27 -17314.848211    174.403667 -24004.790903    -46.106690
PE30  -6725.285818 -20713.997985 -20050.327068   2894.147001
PE31   7443.498463  19910.490115  20605.377425   -481.813585
PE33   2818.974050  22443.941243  19085.093108   -469.302320
PE36  13849.638167  -8496.980432 -24743.113339   -215.768882
PG01 -17642.809059  -6787.858856  18538.984256    670.161644
PG02  13523.789447  22800.541139   1639.559884   -609.400403
PG03 -17792.519431   4031.496384  19175.459243   -181.453882
PG04 -26568.782846   -962.572869   -622.789808   -198.633233
PG05  11402.694390  10798.056196 -21559.338848    -43.822368
PG06   4622.974900  23690.094058  11075.389743     22.507339
PG07 -12693.691582   8501.880203 -21352.166404    168.283842
PG08 -24266.921304  -6365.029727  -9185.612050    -23.649673
PG09 -22947.094311   7763.387586 -10979.547680   -349.137466
PG10  11024.268424 -23693.808081   3964.754384   -134.746681
PG12  17331.572718  -1233.595364  19793.995763    -49.783140
PG13  17852.267755  13090.454819 -14908.471961    140.040068
PG14 -12319.162947  23220.234944   3677.980918     76.007476
PG15  24886.416961   4395.336237  -9091.027227   -145.007876
PG16  -6287.540303 -15395.178631 -20846.711135   -335.270175
PG17 -10108.823932  13312.802621  21067.232956    452.510033
PG18  10184.955544 -12141.588000 -21314.923560    348.360029
PG19   -214.326394  14714.807722  21829.229704      8.397090
PG20  13758.037345   7703.176595 -21381.521099    521.548002
PG21 -19734.303404 -12652.980616  13650.345318    122.503539
PG22 -14589.856165  -6233.973710  21488.189197   -598.150428
PG23  16737.120598 -19269.703619  -7271.870420    100.815549
PG24  19604.615422  10601.393658  14488.790857    113.372739
PG25  18539.094976 -13734.532292  12649.918560    148.965708
PG26    254.016944 -22271.464696 -14320.789388     93.545778
PG27 -15971.685095 -12269.159478 -17681.424735   -140.865610
PG28  -8396.740591  23297.324706  10400.364500    560.926314
PG29  23768.221847  -5049.329392 -10834.795988   -357.836310
PG30  -3377.953713  20180.945670 -16744.870174   -434.243956
PG31  -6227.402389 -24259.431355   8024.297638   -120.914387
PG32   6694.898806 -14793.030401  21103.041520     19.699881
PJ01 -36389.817018  19677.494524  -3356.288978   -389.164100
PJ02 -22746.750375  31832.298185 -10996.158104     -0.104747
PJ03 -27596.185807  22488.424312  27719.518126     -7.053420
PR01  -1754.680506  12880.274388 -21937.526455     80.337389
PR02  17316.204412   1270.702977 -18615.731013    480.979398
PR03  23276.522139  -9657.006564  -3731.546370     37.040112
PR04  16116.159539 -14863.458705  13067.663889     89.612930
PR05     -4.702995 -11824.833856  22614.860928     72.889794
PR07 -23308.974798   9924.950245   3203.614993    -42.401336
PR08 -16094.259876  14915.465212 -12962.444393    -59.326269
PR09  -9713.486506 -11208.702767 -20755.871797     -3.965752
PR11  -5840.504260  22565.925340 -10333.100461     -8.848459
PR12   2417.058095  24169.187896   7844.539073    234.091401
PR13   9312.321633  11808.877083  20587.165081    -55.701223
PR14  10859.911910  -8259.202715  21568.406866     64.932462
PR15   6033.430885 -22739.944421   9881.982636    103.477553
PR16  -3545.934077 -23609.950543  -8824.385052    -15.883721
PR17  18475.592850   2825.474608 -17375.720043    429.433659
PR18   5325.892414  -9002.224886 -23257.781457     78.739093
PR19  -9404.252196 -16152.164073 -17364.878785   -146.239072
PR20 -21028.537610 -14443.637759   1038.945106    -50.227610
PR21 -17718.450580  -2022.069017  18220.738931   -213.715900
PR22  -4491.376334   9484.495729  23224.694147   -115.818393
PR24  21403.975606  13776.180827  -1739.893820     45.081430
EOF
